{"type": "FeatureCollection", "features": [ {"type": "Feature", "properties": {"norad_id": 38953, "name": "BEIDOU-2 G6 (C02)", "group": "beidou", "lat": -3.6632781903888616, "lon": -38.307353256358965, "alt_km": 35763.42265200841, "timestamp": "2025-12-26T09:30:53.903002+00:00", "meta": {"OBJECT_NAME": "BEIDOU-2 G6 (C02)", "OBJECT_ID": "2012-059A", "EPOCH": "2025-12-25T22:54:51.748704", "MEAN_MOTION": 1.00274748, "ECCENTRICITY": 0.0007884, "INCLINATION": 3.9809, "RA_OF_ASC_NODE": 75.381, "ARG_OF_PERICENTER": 293.9359, "MEAN_ANOMALY": 153.0475, "EPHEMERIS_TYPE": 0, "CLASSIFICATION_TYPE": "U", "NORAD_CAT_ID": 38953, "ELEMENT_SET_NO": 999, "REV_AT_EPOCH": 4817, "BSTAR": 0, "MEAN_MOTION_DOT": -1.55e-06, "MEAN_MOTION_DDOT": 0}, "tle": {"line1": "1 38953U 12059A   25359.95476561 -.00000155  00000+0  00000+0 0  9992", "line2": "2 38953   3.9809  75.3810 0007884 293.9359 153.0475  1.00274748 48178"}}, "geometry": {"type": "Point", "coordinates": [-38.307353256358965, -3.6632781903888616]}}, {"type": "Feature", "properties": {"norad_id": 40549, "name": "BEIDOU-3S IGSO-1S (C31)", "group": "beidou", "lat": 25.880965041776633, "lon": -38.044508407260395, "alt_km": 35922.0879680632, "timestamp": "2025-12-26T09:30:53.903014+00:00", "meta": {"OBJECT_NAME": "BEIDOU-3S IGSO-1S (C31)", "OBJECT_ID": "2015-019A", "EPOCH": "2025-12-25T18:51:43.024032", "MEAN_MOTION": 1.00290186, "ECCENTRICITY": 0.00365496, "INCLINATION": 49.5274, "RA_OF_ASC_NODE": 297.5574, "ARG_OF_PERICENTER": 194.2723, "MEAN_ANOMALY": 340.4455, "EPHEMERIS_TYPE": 0, "CLASSIFICATION_TYPE": "U", "NORAD_CAT_ID": 40549, "ELEMENT_SET_NO": 999, "REV_AT_EPOCH": 3933, "BSTAR": 0, "MEAN_MOTION_DOT": -1.76e-06, "MEAN_MOTION_DDOT": 0}, "tle": {"line1": "1 40549U 15019A   25359.78591463 -.00000176  00000+0  00000+0 0  9998", "line2": "2 40549  49.5274 297.5574 0036549 194.2723 340.4455  1.00290186 39339"}}, "geometry": {"type": "Point", "coordinates": [-38.044508407260395, 25.880965041776633]}}, {"type": "Feature", "properties": {"norad_id": 40748, "name": "BEIDOU-3S M2S (C58)", "group": "beidou", "lat": -15.74243063080969, "lon": -63.388727008701785, "alt_km": 21518.77359259283, "timestamp": "2025-12-26T09:30:53.903026+00:00", "meta": {"OBJECT_NAME": "BEIDOU-3S M2S (C58)", "OBJECT_ID": "2015-037A", "EPOCH": "2025-12-24T19:32:44.901312", "MEAN_MOTION": 1.86229543, "ECCENTRICITY": 0.00118109, "INCLINATION": 55.028, "RA_OF_ASC_NODE": 308.0499, "ARG_OF_PERICENTER": 271.2412, "MEAN_ANOMALY": 88.6304, "EPHEMERIS_TYPE": 0, "CLASSIFICATION_TYPE": "U", "NORAD_CAT_ID": 40748, "ELEMENT_SET_NO": 999, "REV_AT_EPOCH": 7087, "BSTAR": 0, "MEAN_MOTION_DOT": -5.3e-07, "MEAN_MOTION_DDOT": 0}, "tle": {"line1": "1 40748U 15037A   25358.81440858 -.00000053  00000+0  00000+0 0  9997", "line2": "2 40748  55.0280 308.0499 0011810 271.2412  88.6304  1.86229543 70879"}}, "geometry": {"type": "Point", "coordinates": [-63.388727008701785, -15.74243063080969]}}, {"type": "Feature", "properties": {"norad_id": 40749, "name": "BEIDOU-3S M1S (C57)", "group": "beidou", "lat": -6.222059469288788, "lon": 132.34105656688405, "alt_km": 21537.203804324603, "timestamp": "2025-12-26T09:30:53.903037+00:00", "meta": {"OBJECT_NAME": "BEIDOU-3S M1S (C57)", "OBJECT_ID": "2015-037B", "EPOCH": "2025-12-25T13:55:00.289344", "MEAN_MOTION": 1.8625384, "ECCENTRICITY": 0.0003723, "INCLINATION": 55.0236, "RA_OF_ASC_NODE": 308.0126, "ARG_OF_PERICENTER": 2.956, "MEAN_ANOMALY": 357.054, "EPHEMERIS_TYPE": 0, "CLASSIFICATION_TYPE": "U", "NORAD_CAT_ID": 40749, "ELEMENT_SET_NO": 999, "REV_AT_EPOCH": 7089, "BSTAR": 0, "MEAN_MOTION_DOT": -5.4e-07, "MEAN_MOTION_DDOT": 0}, "tle": {"line1": "1 40749U 15037B   25359.57986446 -.00000054  00000+0  00000+0 0  9991", "line2": "2 40749  55.0236 308.0126 0003723   2.9560 357.0540  1.86253840 70899"}}, "geometry": {"type": "Point", "coordinates": [132.34105656688405, -6.222059469288788]}}, {"type": "Feature", "properties": {"norad_id": 40938, "name": "BEIDOU-3S IGSO-2S (C56)", "group": "beidou", "lat": 46.348029893067405, "lon": -35.66667568510225, "alt_km": 35894.98535547516, "timestamp": "2025-12-26T09:30:53.903049+00:00", "meta": {"OBJECT_NAME": "BEIDOU-3S IGSO-2S (C56)", "OBJECT_ID": "2015-053A", "EPOCH": "2025-12-26T06:00:23.194944", "MEAN_MOTION": 1.00267028, "ECCENTRICITY": 0.0060661, "INCLINATION": 49.4896, "RA_OF_ASC_NODE": 260.8471, "ARG_OF_PERICENTER": 188.3782, "MEAN_ANOMALY": 191.6078, "EPHEMERIS_TYPE": 0, "CLASSIFICATION_TYPE": "U", "NORAD_CAT_ID": 40938, "ELEMENT_SET_NO": 999, "REV_AT_EPOCH": 3762, "BSTAR": 0, "MEAN_MOTION_DOT": -1.23e-06, "MEAN_MOTION_DDOT": 0}, "tle": {"line1": "1 40938U 15053A   25360.25026846 -.00000123  00000+0  00000+0 0  9992", "line2": "2 40938  49.4896 260.8471 0060661 188.3782 191.6078  1.00267028 37626"}}, "geometry": {"type": "Point", "coordinates": [-35.66667568510225, 46.348029893067405]}}, {"type": "Feature", "properties": {"norad_id": 41434, "name": "BEIDOU-2 IGSO-6 (C13)", "group": "beidou", "lat": -53.19571800455701, "lon": -10.77533459177242, "alt_km": 35664.23982813537, "timestamp": "2025-12-26T09:30:53.903061+00:00", "meta": {"OBJECT_NAME": "BEIDOU-2 IGSO-6 (C13)", "OBJECT_ID": "2016-021A", "EPOCH": "2025-12-25T02:21:14.682240", "MEAN_MOTION": 1.00290736, "ECCENTRICITY": 0.00608236, "INCLINATION": 59.9818, "RA_OF_ASC_NODE": 39.7747, "ARG_OF_PERICENTER": 230.5129, "MEAN_ANOMALY": 312.5474, "EPHEMERIS_TYPE": 0, "CLASSIFICATION_TYPE": "U", "NORAD_CAT_ID": 41434, "ELEMENT_SET_NO": 999, "REV_AT_EPOCH": 3573, "BSTAR": 0, "MEAN_MOTION_DOT": -1.35e-06, "MEAN_MOTION_DDOT": 0}, "tle": {"line1": "1 41434U 16021A   25359.09808660 -.00000135  00000+0  00000+0 0  9995", "line2": "2 41434  59.9818  39.7747 0060823 230.5129 312.5474  1.00290736 35738"}}, "geometry": {"type": "Point", "coordinates": [-10.77533459177242, -53.19571800455701]}}, {"type": "Feature", "properties": {"norad_id": 41586, "name": "BEIDOU-2 G7 (C03)", "group": "beidou", "lat": -1.767631226479683, "lon": -11.780808334998145, "alt_km": 35783.7920868932, "timestamp": "2025-12-26T09:30:53.903078+00:00", "meta": {"OBJECT_NAME": "BEIDOU-2 G7 (C03)", "OBJECT_ID": "2016-037A", "EPOCH": "2025-12-26T01:34:23.900160", "MEAN_MOTION": 1.00268103, "ECCENTRICITY": 0.0005179, "INCLINATION": 1.7875, "RA_OF_ASC_NODE": 67.9034, "ARG_OF_PERICENTER": 0.6616, "MEAN_ANOMALY": 160.2669, "EPHEMERIS_TYPE": 0, "CLASSIFICATION_TYPE": "U", "NORAD_CAT_ID": 41586, "ELEMENT_SET_NO": 999, "REV_AT_EPOCH": 515, "BSTAR": 0, "MEAN_MOTION_DOT": -3.32e-06, "MEAN_MOTION_DDOT": 0}, "tle": {"line1": "1 41586U 16037A   25360.06555440 -.00000332  00000+0  00000+0 0  9993", "line2": "2 41586   1.7875  67.9034 0005179   0.6616 160.2669  1.00268103  5156"}}, "geometry": {"type": "Point", "coordinates": [-11.780808334998145, -1.767631226479683]}}, {"type": "Feature", "properties": {"norad_id": 43001, "name": "BEIDOU-3 M1 (C19)", "group": "beidou", "lat": 51.984624712679036, "lon": -168.87619733134613, "alt_km": 21548.528774316543, "timestamp": "2025-12-26T09:30:53.903090+00:00", "meta": {"OBJECT_NAME": "BEIDOU-3 M1 (C19)", "OBJECT_ID": "2017-069A", "EPOCH": "2025-12-25T03:49:47.920224", "MEAN_MOTION": 1.86231313, "ECCENTRICITY": 0.0009789, "INCLINATION": 56.5365, "RA_OF_ASC_NODE": 68.8241, "ARG_OF_PERICENTER": 302.2681, "MEAN_ANOMALY": 57.6912, "EPHEMERIS_TYPE": 0, "CLASSIFICATION_TYPE": "U", "NORAD_CAT_ID": 43001, "ELEMENT_SET_NO": 999, "REV_AT_EPOCH": 5536, "BSTAR": 0, "MEAN_MOTION_DOT": -2.5e-07, "MEAN_MOTION_DDOT": 0}, "tle": {"line1": "1 43001U 17069A   25359.15958241 -.00000025  00000+0  00000+0 0  9996", "line2": "2 43001  56.5365  68.8241 0009789 302.2681  57.6912  1.86231313 55361"}}, "geometry": {"type": "Point", "coordinates": [-168.87619733134613, 51.984624712679036]}}, {"type": "Feature", "properties": {"norad_id": 43002, "name": "BEIDOU-3 M2 (C20)", "group": "beidou", "lat": 24.19890040176704, "lon": -128.4346249442147, "alt_km": 21543.99709140708, "timestamp": "2025-12-26T09:30:53.903101+00:00", "meta": {"OBJECT_NAME": "BEIDOU-3 M2 (C20)", "OBJECT_ID": "2017-069B", "EPOCH": "2025-12-25T15:14:16.903968", "MEAN_MOTION": 1.86231039, "ECCENTRICITY": 0.0006764, "INCLINATION": 56.5366, "RA_OF_ASC_NODE": 68.8439, "ARG_OF_PERICENTER": 327.6836, "MEAN_ANOMALY": 32.3283, "EPHEMERIS_TYPE": 0, "CLASSIFICATION_TYPE": "U", "NORAD_CAT_ID": 43002, "ELEMENT_SET_NO": 999, "REV_AT_EPOCH": 5536, "BSTAR": 0, "MEAN_MOTION_DOT": -2.7e-07, "MEAN_MOTION_DDOT": 0}, "tle": {"line1": "1 43002U 17069B   25359.63491787 -.00000027  00000+0  00000+0 0  9999", "line2": "2 43002  56.5366  68.8439 0006764 327.6836  32.3283  1.86231039 55361"}}, "geometry": {"type": "Point", "coordinates": [-128.4346249442147, 24.19890040176704]}}, {"type": "Feature", "properties": {"norad_id": 43107, "name": "BEIDOU-3 M7 (C27)", "group": "beidou", "lat": -29.33787582324545, "lon": -75.31552915699947, "alt_km": 21533.57346744695, "timestamp": "2025-12-26T09:30:53.903131+00:00", "meta": {"OBJECT_NAME": "BEIDOU-3 M7 (C27)", "OBJECT_ID": "2018-003A", "EPOCH": "2025-12-23T05:31:08.538816", "MEAN_MOTION": 1.86232625, "ECCENTRICITY": 0.0002961, "INCLINATION": 54.4874, "RA_OF_ASC_NODE": 308.4506, "ARG_OF_PERICENTER": 66.5422, "MEAN_ANOMALY": 293.4915, "EPHEMERIS_TYPE": 0, "CLASSIFICATION_TYPE": "U", "NORAD_CAT_ID": 43107, "ELEMENT_SET_NO": 999, "REV_AT_EPOCH": 5407, "BSTAR": 0, "MEAN_MOTION_DOT": -5.5e-07, "MEAN_MOTION_DDOT": 0}, "tle": {"line1": "1 43107U 18003A   25357.22995994 -.00000055  00000+0  00000+0 0  9997", "line2": "2 43107  54.4874 308.4506 0002961  66.5422 293.4915  1.86232625 54072"}}, "geometry": {"type": "Point", "coordinates": [-75.31552915699947, -29.33787582324545]}}]}